{"fetched_at":"2026-03-30T06:02:59Z","count":15439,"tles":[{"name":"GAOFEN-1 04","line1":"1 43262U 18031D   26087.60503147  .00001397  00000+0  20816-3 0  9998","line2":"2 43262  98.0609 150.3754 0001491  65.9960 294.1405 14.76474438430792","category":"Other"}]}